GLOBALSTAR M068         
1 32266U 07048D   25047.92754060 -.00000073  00000+0  17378-3 0  9998
2 32266  51.9899 308.8495 0000308 187.4401 253.3388 12.62815225802360
GLOBALSTAR M079         
1 37188U 10054A   25047.75464509 -.00000071  00000+0  18052-3 0  9992
2 37188  52.0034 146.4032 0000813  92.1544  43.9752 12.62270831661241
GLOBALSTAR M074         
1 37189U 10054B   25047.78285311 -.00000047  00000+0  31450-3 0  9998
2 37189  52.0012 145.6591 0000900 117.8745  25.7693 12.62266283661859
GLOBALSTAR M076         
1 37190U 10054C   25047.97336806 -.00000076  00000+0  15277-3 0  9998
2 37190  52.0023 145.2361 0001077 103.0272  68.8838 12.62277672661596
GLOBALSTAR M077         
1 37191U 10054D   25047.55907208 -.00000075  00000+0  16309-3 0  9999
2 37191  52.0067 103.3224 0000577 119.7321  26.6488 12.62270973661917
GLOBALSTAR M075         
1 37192U 10054E   25047.63484965 -.00000095  00000+0  49147-4 0  9998
2 37192  51.9931 188.5898 0000952 105.9221 267.1655 12.62272959660622
GLOBALSTAR M073         
1 37193U 10054F   25047.90750719 -.00000080  00000+0  13421-3 0  9991
2 37193  52.0055 101.4904 0000634 108.8542  61.9251 12.62263343662697
GLOBALSTAR M083         
1 37739U 11033A   25047.76319720 -.00000111  00000+0 -37580-4 0  9991
2 37739  51.9871  50.8216 0000268  72.3460 104.0132 12.62264359631643
GLOBALSTAR M088         
1 37740U 11033B   25047.95332154 -.00000078  00000+0  14532-3 0  9992
2 37740  51.9753 315.8386 0000610  59.8141  21.0824 12.62262876627219
GLOBALSTAR M091         
1 37741U 11033C   25047.95231590 -.00000083  00000+0  11805-3 0  9991
2 37741  51.9991 279.1839 0000747  56.1657 319.2913 12.62264869628005
GLOBALSTAR M085         
1 37742U 11033D   25047.78037355 -.00000113  00000+0 -52299-4 0  9994
2 37742  51.9847 230.8500 0000861  77.9285 295.7747 12.62265412628491
GLOBALSTAR M081         
1 37743U 11033E   25047.82627449 -.00000103  00000+0  40699-5 0  9999
2 37743  51.9933 233.4216 0001069  76.7224  26.5352 12.62260796628641
GLOBALSTAR M089         
1 37744U 11033F   25047.68798478 -.00000100  00000+0  19635-4 0  9997
2 37744  51.9914 188.0928 0001142 107.1004 266.7935 12.62266205629471
GLOBALSTAR M084         
1 38040U 11080A   25047.73567222 -.00000102  00000+0  11703-4 0  9996
2 38040  52.0013  55.1697 0000640 117.5716  53.5259 12.62262212607456
GLOBALSTAR M080         
1 38041U 11080B   25047.78897404 -.00000099  00000+0  28355-4 0  9996
2 38041  52.0065  56.5758 0000848 104.5395  66.6705 12.62277095607586
GLOBALSTAR M082         
1 38042U 11080C   25047.64327701 -.00000106  00000+0 -10287-4 0  9995
2 38042  52.0099  12.4493 0000265 338.1505 192.8319 12.62272993608274
GLOBALSTAR M092         
1 38043U 11080D   25047.85462275 -.00000088  00000+0  90398-4 0  9994
2 38043  52.0079 102.1771 0000582 129.3242  42.5299 12.62273051606754
GLOBALSTAR M090         
1 38044U 11080E   25047.59080035 -.00000095  00000+0  46470-4 0  9996
2 38044  51.9911   6.5742 0000351  44.0339 127.4198 12.62266722608386
GLOBALSTAR M086         
1 38045U 11080F   25047.61699473 -.00000101  00000+0  17512-4 0  9995
2 38045  51.9922   7.0358 0001288  58.1718 112.8000 12.62266582608334
GLOBALSTAR M097         
1 39072U 13005A   25047.92280414 -.00000081  00000+0  12806-3 0  9997
2 39072  52.0042 280.5339 0000931  62.4119 297.6843 12.62270111555627
GLOBALSTAR M093         
1 39073U 13005B   25047.89582177 -.00000093  00000+0  60632-4 0  9999
2 39073  51.9800 274.1072 0000932  63.0104 297.0858 12.62261625555577
GLOBALSTAR M094         
1 39074U 13005C   25047.65867132 -.00000108  00000+0 -24840-4 0  9990
2 39074  51.9941 189.0899 0000904  82.3183 277.7786 12.62268227557151
GLOBALSTAR M096         
1 39075U 13005D   25047.83028907 -.00000105  00000+0 -43085-5 0  9990
2 39075  52.0047 236.9902 0000931  68.6641 291.4325 12.62268406556097
GLOBALSTAR M078         
1 39076U 13005E   25047.96154789 -.00000108  00000+0 -24327-4 0  9993
2 39076  51.9896 321.2604 0000499 305.0737  55.0083 12.62272012554730
GLOBALSTAR M095         
1 39077U 13005F   25047.90927581 -.00000068  00000+0  19707-3 0  9995
2 39077  51.9819 318.6797 0000640  13.9766 346.1118 12.62266455554584
GLOBALSTAR M087         
1 52888U 22064A   25047.86080042 -.00000076  00000+0  15239-3 0  9997
2 52888  51.9787 100.2315 0000370 112.3769 247.7136 12.62268712129842
